{
  "type": "FeatureCollection",
  "features": [
    {
      "type": "Feature",
      "properties": {
        "norad_id": 66436,
        "name": "STARLINK-35501",
        "group": "last-30-days",
        "lat": -32.15246273769259,
        "lon": 45.51766947954929,
        "alt_km": 417.1067397705201,
        "timestamp": "2025-12-05T18:53:12.095879+00:00",
        "meta_object_name": "STARLINK-35501",
        "meta_object_id": "2025-259Q",
        "meta_epoch": "2025-12-05T00:00:02.999808",
        "meta_mean_motion": 15.50586469,
        "meta_eccentricity": 0.0001752,
        "meta_inclination": 43.0007,
        "meta_ra_of_asc_node": 92.539,
        "meta_arg_of_pericenter": 269.0372,
        "meta_mean_anomaly": 321.9252,
        "meta_ephemeris_type": 0,
        "meta_classification_type": "U",
        "meta_norad_cat_id": 66436,
        "meta_element_set_no": 999,
        "meta_rev_at_epoch": 503,
        "meta_bstar": -0.00092574678,
        "meta_mean_motion_dot": -0.00054291,
        "meta_mean_motion_ddot": 0,
        "tle_line1": "1 66436U 25259Q   25339.00003472 -.00054291  00000+0 -92575-3 0  9999",
        "tle_line2": "2 66436  43.0007  92.5390 0001752 269.0372 321.9252 15.50586469  5034"
      },
      "geometry": {
        "type": "Point",
        "coordinates": [
          45.51766947954929,
          -32.15246273769259
        ]
      }
    },
    {
      "type": "Feature",
      "properties": {
        "norad_id": 66437,
        "name": "STARLINK-35474",
        "group": "last-30-days",
        "lat": -31.166899490207605,
        "lon": 47.460299355558796,
        "alt_km": 417.1783100375069,
        "timestamp": "2025-12-05T18:53:12.095891+00:00",
        "meta_object_name": "STARLINK-35474",
        "meta_object_id": "2025-259R",
        "meta_epoch": "2025-12-05T00:00:02.999808",
        "meta_mean_motion": 15.50616065,
        "meta_eccentricity": 0.00015318,
        "meta_inclination": 43.0007,
        "meta_ra_of_asc_node": 92.5341,
        "meta_arg_of_pericenter": 273.3566,
        "meta_mean_anomaly": 319.5146,
        "meta_ephemeris_type": 0,
        "meta_classification_type": "U",
        "meta_norad_cat_id": 66437,
        "meta_element_set_no": 999,
        "meta_rev_at_epoch": 503,
        "meta_bstar": -0.0013836442,
        "meta_mean_motion_dot": -0.00080788,
        "meta_mean_motion_ddot": 0,
        "tle_line1": "1 66437U 25259R   25339.00003472 -.00080788  00000+0 -13836-2 0  9992",
        "tle_line2": "2 66437  43.0007  92.5341 0001531 273.3566 319.5146 15.50616065  5030"
      },
      "geometry": {
        "type": "Point",
        "coordinates": [
          47.460299355558796,
          -31.166899490207605
        ]
      }
    },
    {
      "type": "Feature",
      "properties": {
        "norad_id": 66438,
        "name": "STARLINK-34681",
        "group": "last-30-days",
        "lat": -30.14897542485444,
        "lon": 49.36906709802866,
        "alt_km": 417.1475589752881,
        "timestamp": "2025-12-05T18:53:12.095902+00:00",
        "meta_object_name": "STARLINK-34681",
        "meta_object_id": "2025-259S",
        "meta_epoch": "2025-12-05T00:00:02.999808",
        "meta_mean_motion": 15.50607171,
        "meta_eccentricity": 0.00015784,
        "meta_inclination": 43.0007,
        "meta_ra_of_asc_node": 92.5293,
        "meta_arg_of_pericenter": 264.8555,
        "meta_mean_anomaly": 329.932,
        "meta_ephemeris_type": 0,
        "meta_classification_type": "U",
        "meta_norad_cat_id": 66438,
        "meta_element_set_no": 999,
        "meta_rev_at_epoch": 492,
        "meta_bstar": -0.0010505396,
        "meta_mean_motion_dot": -0.00061551,
        "meta_mean_motion_ddot": 0,
        "tle_line1": "1 66438U 25259S   25339.00003472 -.00061551  00000+0 -10505-2 0  9990",
        "tle_line2": "2 66438  43.0007  92.5293 0001578 264.8555 329.9320 15.50607171  4925"
      },
      "geometry": {
        "type": "Point",
        "coordinates": [
          49.36906709802866,
          -30.14897542485444
        ]
      }
    },
    {
      "type": "Feature",
      "properties": {
        "norad_id": 66439,
        "name": "STARLINK-35327",
        "group": "last-30-days",
        "lat": -33.08784466495662,
        "lon": 43.576653439304245,
        "alt_km": 417.21987937928407,
        "timestamp": "2025-12-05T18:53:12.095917+00:00",
        "meta_object_name": "STARLINK-35327",
        "meta_object_id": "2025-259T",
        "meta_epoch": "2025-12-05T00:00:02.999808",
        "meta_mean_motion": 15.50608503,
        "meta_eccentricity": 0.00016148,
        "meta_inclination": 43.0006,
        "meta_ra_of_asc_node": 92.5456,
        "meta_arg_of_pericenter": 267.7138,
        "meta_mean_anomaly": 321.3225,
        "meta_ephemeris_type": 0,
        "meta_classification_type": "U",
        "meta_norad_cat_id": 66439,
        "meta_element_set_no": 999,
        "meta_rev_at_epoch": 503,
        "meta_bstar": -0.0011237973,
        "meta_mean_motion_dot": -0.00065788,
        "meta_mean_motion_ddot": 0,
        "tle_line1": "1 66439U 25259T   25339.00003472 -.00065788  00000+0 -11238-2 0  9991",
        "tle_line2": "2 66439  43.0006  92.5456 0001614 267.7138 321.3225 15.50608503  5039"
      },
      "geometry": {
        "type": "Point",
        "coordinates": [
          43.576653439304245,
          -33.08784466495662
        ]
      }
    },
    {
      "type": "Feature",
      "properties": {
        "norad_id": 66440,
        "name": "STARLINK-35405",
        "group": "last-30-days",
        "lat": -29.11798168713897,
        "lon": 51.21400689188912,
        "alt_km": 417.06239227908554,
        "timestamp": "2025-12-05T18:53:12.095927+00:00",
        "meta_object_name": "STARLINK-35405",
        "meta_object_id": "2025-259U",
        "meta_epoch": "2025-12-05T00:00:02.999808",
        "meta_mean_motion": 15.50594995,
        "meta_eccentricity": 0.00014967,
        "meta_inclination": 43.0006,
        "meta_ra_of_asc_node": 92.5251,
        "meta_arg_of_pericenter": 271.4204,
        "meta_mean_anomaly": 325.2944,
        "meta_ephemeris_type": 0,
        "meta_classification_type": "U",
        "meta_norad_cat_id": 66440,
        "meta_element_set_no": 999,
        "meta_rev_at_epoch": 503,
        "meta_bstar": -0.00089389837,
        "meta_mean_motion_dot": -0.00052462,
        "meta_mean_motion_ddot": 0,
        "tle_line1": "1 66440U 25259U   25339.00003472 -.00052462  00000+0 -89390-3 0  9993",
        "tle_line2": "2 66440  43.0006  92.5251 0001496 271.4204 325.2944 15.50594995  5038"
      },
      "geometry": {
        "type": "Point",
        "coordinates": [
          51.21400689188912,
          -29.11798168713897
        ]
      }
    },
    {
      "type": "Feature",
      "properties": {
        "norad_id": 66441,
        "name": "STARLINK-35426",
        "group": "last-30-days",
        "lat": -28.060005473216936,
        "lon": 53.024846816408115,
        "alt_km": 416.9166738149188,
        "timestamp": "2025-12-05T18:53:12.095939+00:00",
        "meta_object_name": "STARLINK-35426",
        "meta_object_id": "2025-259V",
        "meta_epoch": "2025-12-05T00:00:02.999808",
        "meta_mean_motion": 15.50594833,
        "meta_eccentricity": 0.00015885,
        "meta_inclination": 43.0007,
        "meta_ra_of_asc_node": 92.5201,
        "meta_arg_of_pericenter": 275.4914,
        "meta_mean_anomaly": 323.1388,
        "meta_ephemeris_type": 0,
        "meta_classification_type": "U",
        "meta_norad_cat_id": 66441,
        "meta_element_set_no": 999,
        "meta_rev_at_epoch": 503,
        "meta_bstar": -0.00089023433,
        "meta_mean_motion_dot": -0.0005225,
        "meta_mean_motion_ddot": 0,
        "tle_line1": "1 66441U 25259V   25339.00003472 -.00052250  00000+0 -89023-3 0  9992",
        "tle_line2": "2 66441  43.0007  92.5201 0001588 275.4914 323.1388 15.50594833  5039"
      },
      "geometry": {
        "type": "Point",
        "coordinates": [
          53.024846816408115,
          -28.060005473216936
        ]
      }
    },
    {
      "type": "Feature",
      "properties": {
        "norad_id": 66442,
        "name": "STARLINK-34724",
        "group": "last-30-days",
        "lat": -26.98357248981612,
        "lon": 54.79222001970681,
        "alt_km": 417.1026198573145,
        "timestamp": "2025-12-05T18:53:12.095949+00:00",
        "meta_object_name": "STARLINK-34724",
        "meta_object_id": "2025-259W",
        "meta_epoch": "2025-12-05T00:00:02.999808",
        "meta_mean_motion": 15.50621701,
        "meta_eccentricity": 0.00014465,
        "meta_inclination": 43.0006,
        "meta_ra_of_asc_node": 92.5157,
        "meta_arg_of_pericenter": 268.1024,
        "meta_mean_anomaly": 332.4356,
        "meta_ephemeris_type": 0,
        "meta_classification_type": "U",
        "meta_norad_cat_id": 66442,
        "meta_element_set_no": 999,
        "meta_rev_at_epoch": 503,
        "meta_bstar": -0.0014917954,
        "meta_mean_motion_dot": -0.00087024,
        "meta_mean_motion_ddot": 0,
        "tle_line1": "1 66442U 25259W   25339.00003472 -.00087024  00000+0 -14918-2 0  9990",
        "tle_line2": "2 66442  43.0006  92.5157 0001446 268.1024 332.4356 15.50621701  5036"
      },
      "geometry": {
        "type": "Point",
        "coordinates": [
          54.79222001970681,
          -26.98357248981612
        ]
      }
    }
  ]
}